[
    {
        "OBJECT_NAME": "SL-14 R/B",
        "OBJECT_ID": "1987-024B",
        "EPOCH": "2026-05-02T07:12:17.731008",
        "MEAN_MOTION": 14.86181294,
        "ECCENTRICITY": 0.0019845,
        "INCLINATION": 82.5306,
        "RA_OF_ASC_NODE": 42.3739,
        "ARG_OF_PERICENTER": 83.7096,
        "MEAN_ANOMALY": 276.638,
        "EPHEMERIS_TYPE": 0,
        "CLASSIFICATION_TYPE": "U",
        "NORAD_CAT_ID": 17567,
        "ELEMENT_SET_NO": 999,
        "REV_AT_EPOCH": 9609,
        "BSTAR": 5.3011e-05,
        "MEAN_MOTION_DOT": 4.91e-06,
        "MEAN_MOTION_DDOT": 0
    },
    {
        "OBJECT_NAME": "COSMOS 1833",
        "OBJECT_ID": "1987-027A",
        "EPOCH": "2026-05-02T10:45:47.451168",
        "MEAN_MOTION": 14.13032105,
        "ECCENTRICITY": 0.0022365,
        "INCLINATION": 70.9158,
        "RA_OF_ASC_NODE": 213.0156,
        "ARG_OF_PERICENTER": 130.7144,
        "MEAN_ANOMALY": 229.5924,
        "EPHEMERIS_TYPE": 0,
        "CLASSIFICATION_TYPE": "U",
        "NORAD_CAT_ID": 17589,
        "ELEMENT_SET_NO": 999,
        "REV_AT_EPOCH": 1791,
        "BSTAR": -3.9679e-05,
        "MEAN_MOTION_DOT": -1.22e-06,
        "MEAN_MOTION_DDOT": 0
    },
    {
        "OBJECT_NAME": "SL-16 R/B",
        "OBJECT_ID": "1987-027B",
        "EPOCH": "2026-05-02T09:46:02.164800",
        "MEAN_MOTION": 14.17172703,
        "ECCENTRICITY": 0.000401,
        "INCLINATION": 71.0017,
        "RA_OF_ASC_NODE": 163.2999,
        "ARG_OF_PERICENTER": 12.1396,
        "MEAN_ANOMALY": 347.9823,
        "EPHEMERIS_TYPE": 0,
        "CLASSIFICATION_TYPE": "U",
        "NORAD_CAT_ID": 17590,
        "ELEMENT_SET_NO": 999,
        "REV_AT_EPOCH": 2295,
        "BSTAR": -3.0379e-05,
        "MEAN_MOTION_DOT": -1.09e-06,
        "MEAN_MOTION_DDOT": 0
    },
    {
        "OBJECT_NAME": "SL-14 R/B",
        "OBJECT_ID": "1987-038B",
        "EPOCH": "2026-05-02T09:21:34.070688",
        "MEAN_MOTION": 14.854159,
        "ECCENTRICITY": 0.0018901,
        "INCLINATION": 82.5013,
        "RA_OF_ASC_NODE": 246.206,
        "ARG_OF_PERICENTER": 351.6984,
        "MEAN_ANOMALY": 8.3916,
        "EPHEMERIS_TYPE": 0,
        "CLASSIFICATION_TYPE": "U",
        "NORAD_CAT_ID": 17912,
        "ELEMENT_SET_NO": 999,
        "REV_AT_EPOCH": 8720,
        "BSTAR": 4.7053e-05,
        "MEAN_MOTION_DOT": 4.3e-06,
        "MEAN_MOTION_DDOT": 0
    },
    {
        "OBJECT_NAME": "COSMOS 1844",
        "OBJECT_ID": "1987-041A",
        "EPOCH": "2026-05-02T10:13:17.315904",
        "MEAN_MOTION": 14.14557659,
        "ECCENTRICITY": 0.0032807,
        "INCLINATION": 70.8978,
        "RA_OF_ASC_NODE": 280.8306,
        "ARG_OF_PERICENTER": 299.561,
        "MEAN_ANOMALY": 60.2243,
        "EPHEMERIS_TYPE": 0,
        "CLASSIFICATION_TYPE": "U",
        "NORAD_CAT_ID": 17973,
        "ELEMENT_SET_NO": 999,
        "REV_AT_EPOCH": 1118,
        "BSTAR": -8.7432e-05,
        "MEAN_MOTION_DOT": -2.17e-06,
        "MEAN_MOTION_DDOT": 0
    },
    {
        "OBJECT_NAME": "SL-14 R/B",
        "OBJECT_ID": "1987-055B",
        "EPOCH": "2026-05-02T10:11:46.762656",
        "MEAN_MOTION": 14.8567495,
        "ECCENTRICITY": 0.0020282,
        "INCLINATION": 82.4965,
        "RA_OF_ASC_NODE": 298.3753,
        "ARG_OF_PERICENTER": 191.8351,
        "MEAN_ANOMALY": 168.2391,
        "EPHEMERIS_TYPE": 0,
        "CLASSIFICATION_TYPE": "U",
        "NORAD_CAT_ID": 18153,
        "ELEMENT_SET_NO": 999,
        "REV_AT_EPOCH": 7791,
        "BSTAR": 5.2317e-05,
        "MEAN_MOTION_DOT": 4.79e-06,
        "MEAN_MOTION_DDOT": 0
    },
    {
        "OBJECT_NAME": "COSMOS 1867",
        "OBJECT_ID": "1987-060A",
        "EPOCH": "2026-05-02T08:58:53.865120",
        "MEAN_MOTION": 14.31510511,
        "ECCENTRICITY": 0.0015576,
        "INCLINATION": 65.0091,
        "RA_OF_ASC_NODE": 156.3601,
        "ARG_OF_PERICENTER": 281.2295,
        "MEAN_ANOMALY": 78.7038,
        "EPHEMERIS_TYPE": 0,
        "CLASSIFICATION_TYPE": "U",
        "NORAD_CAT_ID": 18187,
        "ELEMENT_SET_NO": 999,
        "REV_AT_EPOCH": 2762,
        "BSTAR": 2.8887e-05,
        "MEAN_MOTION_DOT": -2.3e-07,
        "MEAN_MOTION_DDOT": 0
    },
    {
        "OBJECT_NAME": "SL-14 R/B",
        "OBJECT_ID": "1988-001B",
        "EPOCH": "2026-05-02T03:42:22.082400",
        "MEAN_MOTION": 14.85575233,
        "ECCENTRICITY": 0.0019478,
        "INCLINATION": 82.5116,
        "RA_OF_ASC_NODE": 145.0827,
        "ARG_OF_PERICENTER": 64.0309,
        "MEAN_ANOMALY": 296.2911,
        "EPHEMERIS_TYPE": 0,
        "CLASSIFICATION_TYPE": "U",
        "NORAD_CAT_ID": 18749,
        "ELEMENT_SET_NO": 999,
        "REV_AT_EPOCH": 4996,
        "BSTAR": 4.5107e-05,
        "MEAN_MOTION_DOT": 4.16e-06,
        "MEAN_MOTION_DDOT": 0
    },
    {
        "OBJECT_NAME": "COSMOS 1933",
        "OBJECT_ID": "1988-020A",
        "EPOCH": "2026-05-02T07:22:42.829824",
        "MEAN_MOTION": 15.18438827,
        "ECCENTRICITY": 0.0004541,
        "INCLINATION": 82.5149,
        "RA_OF_ASC_NODE": 197.8549,
        "ARG_OF_PERICENTER": 35.1536,
        "MEAN_ANOMALY": 324.9997,
        "EPHEMERIS_TYPE": 0,
        "CLASSIFICATION_TYPE": "U",
        "NORAD_CAT_ID": 18958,
        "ELEMENT_SET_NO": 999,
        "REV_AT_EPOCH": 5836,
        "BSTAR": 0.00018155,
        "MEAN_MOTION_DOT": 3.768e-05,
        "MEAN_MOTION_DDOT": 0
    },
    {
        "OBJECT_NAME": "SL-3 R/B",
        "OBJECT_ID": "1988-032B",
        "EPOCH": "2026-05-02T10:39:26.235360",
        "MEAN_MOTION": 15.2045913,
        "ECCENTRICITY": 0.002708,
        "INCLINATION": 97.5239,
        "RA_OF_ASC_NODE": 105.5514,
        "ARG_OF_PERICENTER": 49.5123,
        "MEAN_ANOMALY": 310.8466,
        "EPHEMERIS_TYPE": 0,
        "CLASSIFICATION_TYPE": "U",
        "NORAD_CAT_ID": 19046,
        "ELEMENT_SET_NO": 999,
        "REV_AT_EPOCH": 6027,
        "BSTAR": 0.00025724,
        "MEAN_MOTION_DOT": 5.598e-05,
        "MEAN_MOTION_DDOT": 0
    },
    {
        "OBJECT_NAME": "SL-16 R/B",
        "OBJECT_ID": "1988-039B",
        "EPOCH": "2026-05-02T05:59:54.437568",
        "MEAN_MOTION": 14.196247,
        "ECCENTRICITY": 0.0024024,
        "INCLINATION": 71.0146,
        "RA_OF_ASC_NODE": 315.2951,
        "ARG_OF_PERICENTER": 258.8093,
        "MEAN_ANOMALY": 101.0332,
        "EPHEMERIS_TYPE": 0,
        "CLASSIFICATION_TYPE": "U",
        "NORAD_CAT_ID": 19120,
        "ELEMENT_SET_NO": 999,
        "REV_AT_EPOCH": 96598,
        "BSTAR": -3.2998e-05,
        "MEAN_MOTION_DOT": -1.18e-06,
        "MEAN_MOTION_DDOT": 0
    },
    {
        "OBJECT_NAME": "COSMOS 1953",
        "OBJECT_ID": "1988-050A",
        "EPOCH": "2026-05-02T11:43:21.635904",
        "MEAN_MOTION": 15.29325264,
        "ECCENTRICITY": 0.0008826,
        "INCLINATION": 82.5049,
        "RA_OF_ASC_NODE": 104.089,
        "ARG_OF_PERICENTER": 298.888,
        "MEAN_ANOMALY": 61.1474,
        "EPHEMERIS_TYPE": 0,
        "CLASSIFICATION_TYPE": "U",
        "NORAD_CAT_ID": 19210,
        "ELEMENT_SET_NO": 999,
        "REV_AT_EPOCH": 4600,
        "BSTAR": 0.00032606,
        "MEAN_MOTION_DOT": 9.315e-05,
        "MEAN_MOTION_DDOT": 0
    },
    {
        "OBJECT_NAME": "SL-8 R/B",
        "OBJECT_ID": "1988-053B",
        "EPOCH": "2026-05-02T10:05:09.032352",
        "MEAN_MOTION": 14.38945144,
        "ECCENTRICITY": 0.0020331,
        "INCLINATION": 74.0496,
        "RA_OF_ASC_NODE": 13.4236,
        "ARG_OF_PERICENTER": 183.6291,
        "MEAN_ANOMALY": 349.6945,
        "EPHEMERIS_TYPE": 0,
        "CLASSIFICATION_TYPE": "U",
        "NORAD_CAT_ID": 19257,
        "ELEMENT_SET_NO": 999,
        "REV_AT_EPOCH": 98432,
        "BSTAR": 8.2804e-05,
        "MEAN_MOTION_DOT": 2.3e-06,
        "MEAN_MOTION_DDOT": 0
    }
]