{"fetched_at":"2026-05-03T06:27:58Z","count":17151,"tles":[{"name":"COSMOS 1953","line1":"1 19210U 88050A   26122.48844486  .00009315  00000+0  32606-3 0  9990","line2":"2 19210  82.5049 104.0890 0008826 298.8880  61.1474 15.29325264 46004","category":"Other"},{"name":"SL-14 R/B","line1":"1 18749U 88001B   26122.15442225  .00000416  00000+0  45107-4 0  9995","line2":"2 18749  82.5116 145.0827 0019478  64.0309 296.2911 14.85575233 49963","category":"Other"},{"name":"SL-14 R/B","line1":"1 18153U 87055B   26122.42484679  .00000479  00000+0  52317-4 0  9991","line2":"2 18153  82.4965 298.3753 0020282 191.8351 168.2391 14.85674950 77916","category":"Other"},{"name":"SL-16 R/B","line1":"1 17590U 87027B   26122.40696950 -.00000109  00000+0 -30379-4 0  9995","line2":"2 17590  71.0017 163.2999 0004010  12.1396 347.9823 14.17172703 22953","category":"Other"},{"name":"SL-14 R/B","line1":"1 17912U 87038B   26122.38997767  .00000430  00000+0  47053-4 0  9994","line2":"2 17912  82.5013 246.2060 0018901 351.6984   8.3916 14.85415900 87207","category":"Other"},{"name":"SL-3 R/B","line1":"1 19046U 88032B   26122.44405365  .00005598  00000+0  25724-3 0  9994","line2":"2 19046  97.5239 105.5514 0027080  49.5123 310.8466 15.20459130 60272","category":"Other"},{"name":"COSMOS 1844","line1":"1 17973U 87041A   26122.42589486 -.00000217  00000+0 -87432-4 0  9995","line2":"2 17973  70.8978 280.8306 0032807 299.5610  60.2243 14.14557659 11182","category":"Other"},{"name":"SL-14 R/B","line1":"1 17567U 87024B   26122.30020522  .00000491  00000+0  53011-4 0  9991","line2":"2 17567  82.5306  42.3739 0019845  83.7096 276.6380 14.86181294 96090","category":"Other"},{"name":"COSMOS 1933","line1":"1 18958U 88020A   26122.30744016  .00003768  00000+0  18155-3 0  9993","line2":"2 18958  82.5149 197.8549 0004541  35.1536 324.9997 15.18438827 58364","category":"Other"},{"name":"SL-16 R/B","line1":"1 19120U 88039B   26122.24993562 -.00000118  00000+0 -32998-4 0  9990","line2":"2 19120  71.0146 315.2951 0024024 258.8093 101.0332 14.19624700965988","category":"Other"},{"name":"COSMOS 1833","line1":"1 17589U 87027A   26122.44846587 -.00000122  00000+0 -39679-4 0  9997","line2":"2 17589  70.9158 213.0156 0022365 130.7144 229.5924 14.13032105 17919","category":"Other"},{"name":"COSMOS 1867","line1":"1 18187U 87060A   26122.37423455 -.00000023  00000+0  28887-4 0  9994","line2":"2 18187  65.0091 156.3601 0015576 281.2295  78.7038 14.31510511 27625","category":"Other"},{"name":"SL-8 R/B","line1":"1 19257U 88053B   26122.42024343  .00000230  00000+0  82804-4 0  9993","line2":"2 19257  74.0496  13.4236 0020331 183.6291 349.6945 14.38945144984323","category":"Other"}]}